{"fetched_at":"2026-07-23T07:05:22.094Z","source":"https://celestrak.org/NORAD/elements/gp.php?GROUP=qianfan&FORMAT=JSON","constellation":"qianfan","records":[{"OBJECT_NAME":"QIANFAN-97","OBJECT_ID":"2025-233G","EPOCH":"2026-07-22T18:40:06.927744","CLASSIFICATION_TYPE":"U","MEAN_MOTION":13.51016073,"ECCENTRICITY":0.00021174,"INCLINATION":88.9986,"RA_OF_ASC_NODE":39.5876,"ARG_OF_PERICENTER":94.5777,"MEAN_ANOMALY":265.5616,"EPHEMERIS_TYPE":0,"NORAD_CAT_ID":66039,"ELEMENT_SET_NO":999,"REV_AT_EPOCH":3799,"BSTAR":0.000037254797,"MEAN_MOTION_DOT":3.6e-7,"MEAN_MOTION_DDOT":0},{"OBJECT_NAME":"QIANFAN-98","OBJECT_ID":"2025-233H","EPOCH":"2026-07-22T11:45:20.083392","CLASSIFICATION_TYPE":"U","MEAN_MOTION":13.51015779,"ECCENTRICITY":0.00023542,"INCLINATION":88.9975,"RA_OF_ASC_NODE":39.3437,"ARG_OF_PERICENTER":80.9783,"MEAN_ANOMALY":279.1634,"EPHEMERIS_TYPE":0,"NORAD_CAT_ID":66040,"ELEMENT_SET_NO":999,"REV_AT_EPOCH":3809,"BSTAR":0.000038362181,"MEAN_MOTION_DOT":3.7e-7,"MEAN_MOTION_DDOT":0},{"OBJECT_NAME":"QIANFAN-99","OBJECT_ID":"2025-233J","EPOCH":"2026-07-22T11:51:14.410656","CLASSIFICATION_TYPE":"U","MEAN_MOTION":13.51015868,"ECCENTRICITY":0.00023493,"INCLINATION":88.9986,"RA_OF_ASC_NODE":39.6205,"ARG_OF_PERICENTER":85.7897,"MEAN_ANOMALY":274.3523,"EPHEMERIS_TYPE":0,"NORAD_CAT_ID":66041,"ELEMENT_SET_NO":999,"REV_AT_EPOCH":3795,"BSTAR":0.000049672205,"MEAN_MOTION_DOT":4.4e-7,"MEAN_MOTION_DDOT":0},{"OBJECT_NAME":"QIANFAN-100","OBJECT_ID":"2025-233K","EPOCH":"2026-07-22T18:45:55.219104","CLASSIFICATION_TYPE":"U","MEAN_MOTION":13.51015877,"ECCENTRICITY":0.00020911,"INCLINATION":88.9997,"RA_OF_ASC_NODE":39.5223,"ARG_OF_PERICENTER":94.8012,"MEAN_ANOMALY":265.3378,"EPHEMERIS_TYPE":0,"NORAD_CAT_ID":66042,"ELEMENT_SET_NO":999,"REV_AT_EPOCH":3804,"BSTAR":0.000027274863,"MEAN_MOTION_DOT":3e-7,"MEAN_MOTION_DDOT":0},{"OBJECT_NAME":"QIANFAN-101","OBJECT_ID":"2025-233L","EPOCH":"2026-07-22T18:43:46.274016","CLASSIFICATION_TYPE":"U","MEAN_MOTION":14.26825518,"ECCENTRICITY":0.00164472,"INCLINATION":88.9984,"RA_OF_ASC_NODE":36.4786,"ARG_OF_PERICENTER":35.1883,"MEAN_ANOMALY":325.0394,"EPHEMERIS_TYPE":0,"NORAD_CAT_ID":66043,"ELEMENT_SET_NO":999,"REV_AT_EPOCH":3970,"BSTAR":0.000097368727,"MEAN_MOTION_DOT":0.00000251,"MEAN_MOTION_DDOT":0},{"OBJECT_NAME":"QIANFAN-102","OBJECT_ID":"2025-233M","EPOCH":"2026-07-22T06:49:06.315168","CLASSIFICATION_TYPE":"U","MEAN_MOTION":13.51015817,"ECCENTRICITY":0.00021629,"INCLINATION":88.9984,"RA_OF_ASC_NODE":39.5506,"ARG_OF_PERICENTER":89.218,"MEAN_ANOMALY":270.9219,"EPHEMERIS_TYPE":0,"NORAD_CAT_ID":66044,"ELEMENT_SET_NO":999,"REV_AT_EPOCH":3797,"BSTAR":0.000060736902,"MEAN_MOTION_DOT":5.1e-7,"MEAN_MOTION_DDOT":0},{"OBJECT_NAME":"QIANFAN-103","OBJECT_ID":"2025-233N","EPOCH":"2026-07-22T12:14:57.840288","CLASSIFICATION_TYPE":"U","MEAN_MOTION":13.5101672,"ECCENTRICITY":0.00020864,"INCLINATION":88.9987,"RA_OF_ASC_NODE":39.6238,"ARG_OF_PERICENTER":94.6895,"MEAN_ANOMALY":265.4494,"EPHEMERIS_TYPE":0,"NORAD_CAT_ID":66045,"ELEMENT_SET_NO":999,"REV_AT_EPOCH":3795,"BSTAR":0.000046012212,"MEAN_MOTION_DOT":4.2e-7,"MEAN_MOTION_DDOT":0},{"OBJECT_NAME":"QIANFAN-104","OBJECT_ID":"2025-233P","EPOCH":"2026-07-22T19:27:39.174912","CLASSIFICATION_TYPE":"U","MEAN_MOTION":13.51022187,"ECCENTRICITY":0.00020764,"INCLINATION":88.9991,"RA_OF_ASC_NODE":39.4971,"ARG_OF_PERICENTER":87.1651,"MEAN_ANOMALY":272.9737,"EPHEMERIS_TYPE":0,"NORAD_CAT_ID":66046,"ELEMENT_SET_NO":999,"REV_AT_EPOCH":3804,"BSTAR":0.000034058431,"MEAN_MOTION_DOT":3.4e-7,"MEAN_MOTION_DDOT":0},{"OBJECT_NAME":"QIANFAN-105","OBJECT_ID":"2025-233Q","EPOCH":"2026-07-22T19:39:32.390496","CLASSIFICATION_TYPE":"U","MEAN_MOTION":13.51021394,"ECCENTRICITY":0.00022156,"INCLINATION":89.0005,"RA_OF_ASC_NODE":39.3439,"ARG_OF_PERICENTER":92.1334,"MEAN_ANOMALY":268.0071,"EPHEMERIS_TYPE":0,"NORAD_CAT_ID":66047,"ELEMENT_SET_NO":999,"REV_AT_EPOCH":3815,"BSTAR":0.000042971251,"MEAN_MOTION_DOT":4e-7,"MEAN_MOTION_DDOT":0},{"OBJECT_NAME":"QIANFAN-106","OBJECT_ID":"2025-233R","EPOCH":"2026-07-22T19:33:28.920384","CLASSIFICATION_TYPE":"U","MEAN_MOTION":13.51015748,"ECCENTRICITY":0.00022972,"INCLINATION":88.9973,"RA_OF_ASC_NODE":39.5462,"ARG_OF_PERICENTER":82.3186,"MEAN_ANOMALY":277.8226,"EPHEMERIS_TYPE":0,"NORAD_CAT_ID":66048,"ELEMENT_SET_NO":999,"REV_AT_EPOCH":3799,"BSTAR":0.000032654208,"MEAN_MOTION_DOT":3.3e-7,"MEAN_MOTION_DDOT":0},{"OBJECT_NAME":"QIANFAN-107","OBJECT_ID":"2025-233S","EPOCH":"2026-07-22T12:38:42.738720","CLASSIFICATION_TYPE":"U","MEAN_MOTION":13.51015218,"ECCENTRICITY":0.00020826,"INCLINATION":88.9989,"RA_OF_ASC_NODE":39.6136,"ARG_OF_PERICENTER":93.9447,"MEAN_ANOMALY":266.1942,"EPHEMERIS_TYPE":0,"NORAD_CAT_ID":66049,"ELEMENT_SET_NO":999,"REV_AT_EPOCH":3796,"BSTAR":0.000034338004,"MEAN_MOTION_DOT":3.4e-7,"MEAN_MOTION_DDOT":0},{"OBJECT_NAME":"QIANFAN-108","OBJECT_ID":"2025-233T","EPOCH":"2026-07-22T12:44:36.233088","CLASSIFICATION_TYPE":"U","MEAN_MOTION":13.51016494,"ECCENTRICITY":0.00022616,"INCLINATION":88.9982,"RA_OF_ASC_NODE":39.5983,"ARG_OF_PERICENTER":82.7372,"MEAN_ANOMALY":277.4037,"EPHEMERIS_TYPE":0,"NORAD_CAT_ID":66050,"ELEMENT_SET_NO":999,"REV_AT_EPOCH":3796,"BSTAR":0.000051796227,"MEAN_MOTION_DOT":4.5e-7,"MEAN_MOTION_DDOT":0},{"OBJECT_NAME":"QIANFAN-109","OBJECT_ID":"2026-075A","EPOCH":"2026-07-22T20:11:30.225984","CLASSIFICATION_TYPE":"U","MEAN_MOTION":13.51025451,"ECCENTRICITY":0.00024837,"INCLINATION":88.9919,"RA_OF_ASC_NODE":317.3729,"ARG_OF_PERICENTER":114.071,"MEAN_ANOMALY":246.0701,"EPHEMERIS_TYPE":0,"NORAD_CAT_ID":68636,"ELEMENT_SET_NO":999,"REV_AT_EPOCH":1460,"BSTAR":0.00014315905,"MEAN_MOTION_DOT":0.00000104,"MEAN_MOTION_DDOT":0},{"OBJECT_NAME":"QIANFAN-110","OBJECT_ID":"2026-075B","EPOCH":"2026-07-22T20:23:22.728768","CLASSIFICATION_TYPE":"U","MEAN_MOTION":13.5101709,"ECCENTRICITY":0.00020802,"INCLINATION":88.9919,"RA_OF_ASC_NODE":317.3935,"ARG_OF_PERICENTER":105.1202,"MEAN_ANOMALY":255.018,"EPHEMERIS_TYPE":0,"NORAD_CAT_ID":68637,"ELEMENT_SET_NO":999,"REV_AT_EPOCH":1460,"BSTAR":0.00015462388,"MEAN_MOTION_DOT":0.00000112,"MEAN_MOTION_DDOT":0},{"OBJECT_NAME":"QIANFAN-111","OBJECT_ID":"2026-075C","EPOCH":"2026-07-22T20:05:32.052192","CLASSIFICATION_TYPE":"U","MEAN_MOTION":13.5100846,"ECCENTRICITY":0.00021266,"INCLINATION":88.9918,"RA_OF_ASC_NODE":317.3541,"ARG_OF_PERICENTER":103.9475,"MEAN_ANOMALY":256.1913,"EPHEMERIS_TYPE":0,"NORAD_CAT_ID":68638,"ELEMENT_SET_NO":999,"REV_AT_EPOCH":1462,"BSTAR":0.00017360723,"MEAN_MOTION_DOT":0.00000124,"MEAN_MOTION_DDOT":0},{"OBJECT_NAME":"QIANFAN-112","OBJECT_ID":"2026-075D","EPOCH":"2026-07-22T20:58:43.965408","CLASSIFICATION_TYPE":"U","MEAN_MOTION":13.51014525,"ECCENTRICITY":0.00022931,"INCLINATION":88.9916,"RA_OF_ASC_NODE":317.359,"ARG_OF_PERICENTER":117.5485,"MEAN_ANOMALY":242.5899,"EPHEMERIS_TYPE":0,"NORAD_CAT_ID":68639,"ELEMENT_SET_NO":999,"REV_AT_EPOCH":1462,"BSTAR":0.00017719373,"MEAN_MOTION_DOT":0.00000126,"MEAN_MOTION_DDOT":0}]}
