{"epoch":1784799577,"count":18318,"objects":[{"id":"66039","name":"QIANFAN-97","type":"PAYLOAD","l1":"1 66039U 25233G   26203.77785796  .00000036  00000-0  37255-4 0  9993","l2":"2 66039  88.9986  39.5876 0002117  94.5777 265.5616 13.51016073 37998"},{"id":"66040","name":"QIANFAN-98","type":"PAYLOAD","l1":"1 66040U 25233H   26203.48981578  .00000037  00000-0  38362-4 0  9990","l2":"2 66040  88.9975  39.3437 0002354  80.9783 279.1634 13.51015779 38093"},{"id":"66041","name":"QIANFAN-99","type":"PAYLOAD","l1":"1 66041U 25233J   26203.49391679  .00000044  00000-0  49672-4 0  9993","l2":"2 66041  88.9986  39.6205 0002349  85.7897 274.3523 13.51015868 37952"},{"id":"66042","name":"QIANFAN-100","type":"PAYLOAD","l1":"1 66042U 25233K   26203.78188911  .00000030  00000-0  27275-4 0  9999","l2":"2 66042  88.9997  39.5223 0002091  94.8012 265.3378 13.51015877 38047"},{"id":"66043","name":"QIANFAN-101","type":"PAYLOAD","l1":"1 66043U 25233L   26203.78039669  .00000251  00000-0  97369-4 0  9991","l2":"2 66043  88.9984  36.4786 0016447  35.1883 325.0394 14.26825518 39708"},{"id":"66044","name":"QIANFAN-102","type":"PAYLOAD","l1":"1 66044U 25233M   26203.28410087  .00000051  00000-0  60737-4 0  9991","l2":"2 66044  88.9984  39.5506 0002163  89.2180 270.9219 13.51015817 37974"},{"id":"66045","name":"QIANFAN-103","type":"PAYLOAD","l1":"1 66045U 25233N   26203.51039167  .00000042  00000-0  46012-4 0  9994","l2":"2 66045  88.9987  39.6238 0002086  94.6895 265.4494 13.51016720 37954"},{"id":"66046","name":"QIANFAN-104","type":"PAYLOAD","l1":"1 66046U 25233P   26203.81087008  .00000034  00000-0  34058-4 0  9993","l2":"2 66046  88.9991  39.4971 0002076  87.1651 272.9737 13.51022187 38046"},{"id":"66047","name":"QIANFAN-105","type":"PAYLOAD","l1":"1 66047U 25233Q   26203.81912489  .00000040  00000-0  42971-4 0  9994","l2":"2 66047  89.0005  39.3439 0002216  92.1334 268.0071 13.51021394 38151"},{"id":"66048","name":"QIANFAN-106","type":"PAYLOAD","l1":"1 66048U 25233R   26203.81491806  .00000033  00000-0  32654-4 0  9999","l2":"2 66048  88.9973  39.5462 0002297  82.3186 277.8226 13.51015748 37994"},{"id":"66049","name":"QIANFAN-107","type":"PAYLOAD","l1":"1 66049U 25233S   26203.52688355  .00000034  00000-0  34338-4 0  9997","l2":"2 66049  88.9989  39.6136 0002083  93.9447 266.1942 13.51015218 37967"},{"id":"66050","name":"QIANFAN-108","type":"PAYLOAD","l1":"1 66050U 25233T   26203.53097492  .00000045  00000-0  51796-4 0  9995","l2":"2 66050  88.9982  39.5983 0002262  82.7372 277.4037 13.51016494 37960"},{"id":"68636","name":"QIANFAN-109","type":"PAYLOAD","l1":"1 68636U 26075A   26203.84132206  .00000104  00000-0  14316-3 0  9991","l2":"2 68636  88.9919 317.3729 0002484 114.0710 246.0701 13.51025451 14607"},{"id":"68637","name":"QIANFAN-110","type":"PAYLOAD","l1":"1 68637U 26075B   26203.84956862  .00000112  00000-0  15462-3 0  9996","l2":"2 68637  88.9919 317.3935 0002080 105.1202 255.0180 13.51017090 14607"},{"id":"68638","name":"QIANFAN-111","type":"PAYLOAD","l1":"1 68638U 26075C   26203.83717653  .00000124  00000-0  17361-3 0  9992","l2":"2 68638  88.9918 317.3541 0002127 103.9475 256.1913 13.51008460 14629"},{"id":"68639","name":"QIANFAN-112","type":"PAYLOAD","l1":"1 68639U 26075D   26203.87411997  .00000126  00000-0  17719-3 0  9998","l2":"2 68639  88.9916 317.3590 0002293 117.5485 242.5899 13.51014525 14629"}]}